start=new Date('2021-09-23T00:00:00.000Z').valueOf();
sats=[{"OBJECT_NAME":"STARLINK-1296","MEAN_ELEMENT_THEORY":"SGP4","REV_AT_EPOCH":"359","MEAN_MOTION_DOT":"0.00039828","CENTER_NAME":"EARTH","INCLINATION":"53.0534","ARG_OF_PERICENTER":"61.5548","SITE":"AFETR","REF_FRAME":"TEME","TLE_LINE1":"1 45412U 20019BE  21265.83334491  .00039828  00000-0  26800-2 0  9997","TLE_LINE2":"2 45412  53.0534 248.8433 0001081  61.5548 315.0060 15.06367041  3594","NORAD_CAT_ID":"45412","OBJECT_ID":"2020-019BE","OBJECT_TYPE":"PAYLOAD","TIME_SYSTEM":"UTC","MEAN_MOTION_DDOT":"0.0000000000000","EPOCH":"2021-09-22T20:00:01.000224","PERIAPSIS":"546.566","MEAN_MOTION":"15.06367041","DECAY_DATE":null,"COUNTRY_CODE":"US","LAUNCH_DATE":"2020-03-18","BSTAR":"0.00268000000000","CLASSIFICATION_TYPE":"U","FILE":"3123736","RA_OF_ASC_NODE":"248.8433","APOAPSIS":"548.063","RCS_SIZE":"LARGE","PERIOD":"95.594","MEAN_ANOMALY":"315.0060","EPHEMERIS_TYPE":"0","ELEMENT_SET_NO":"999","GP_ID":"185265639","ECCENTRICITY":"0.00010810","SEMIMAJOR_AXIS":"6925.450"},{"FILE":"3123736","RA_OF_ASC_NODE":"249.6232","LAUNCH_DATE":"2020-03-18","BSTAR":"0.00009362600000","CLASSIFICATION_TYPE":"U","EPOCH":"2021-09-22T15:51:31.378176","PERIAPSIS":"546.557","DECAY_DATE":null,"COUNTRY_CODE":"US","MEAN_MOTION":"15.06397807","SEMIMAJOR_AXIS":"6925.355","ELEMENT_SET_NO":"999","ECCENTRICITY":"0.00009580","GP_ID":"185266388","PERIOD":"95.592","MEAN_ANOMALY":"304.7188","EPHEMERIS_TYPE":"0","APOAPSIS":"547.884","RCS_SIZE":"LARGE","SITE":"AFETR","REF_FRAME":"TEME","TLE_LINE1":"1 45413U 20019BF  21265.66077984  .00001113  00000-0  93626-4 0  9998","INCLINATION":"53.0550","ARG_OF_PERICENTER":"55.3891","MEAN_MOTION_DOT":"0.00001113","REV_AT_EPOCH":"8442","CENTER_NAME":"EARTH","OBJECT_NAME":"STARLINK-1298","MEAN_ELEMENT_THEORY":"SGP4","TIME_SYSTEM":"UTC","MEAN_MOTION_DDOT":"0.0000000000000","OBJECT_TYPE":"PAYLOAD","OBJECT_ID":"2020-019BF","TLE_LINE2":"2 45413  53.0550 249.6232 0000958  55.3891 304.7188 15.06397807 84423","NORAD_CAT_ID":"45413"},{"CENTER_NAME":"EARTH","REV_AT_EPOCH":"8427","MEAN_MOTION_DOT":"-0.00000781","MEAN_ELEMENT_THEORY":"SGP4","OBJECT_NAME":"STARLINK-1309","TLE_LINE1":"1 45414U 20019BG  21265.38064045 -.00000781  00000-0 -33558-4 0  9992","SITE":"AFETR","REF_FRAME":"TEME","ARG_OF_PERICENTER":"74.4000","INCLINATION":"53.0548","OBJECT_ID":"2020-019BG","TLE_LINE2":"2 45414  53.0548 250.8807 0000943  74.4000 285.7093 15.06396763 84277","NORAD_CAT_ID":"45414","TIME_SYSTEM":"UTC","MEAN_MOTION_DDOT":"0.0000000000000","OBJECT_TYPE":"PAYLOAD","LAUNCH_DATE":"2020-03-18","CLASSIFICATION_TYPE":"U","BSTAR":"-0.00003355800000","PERIAPSIS":"546.570","EPOCH":"2021-09-22T09:08:07.334880","COUNTRY_CODE":"US","DECAY_DATE":null,"MEAN_MOTION":"15.06396763","RA_OF_ASC_NODE":"250.8807","FILE":"3123417","PERIOD":"95.592","EPHEMERIS_TYPE":"0","MEAN_ANOMALY":"285.7093","RCS_SIZE":"LARGE","APOAPSIS":"547.877","SEMIMAJOR_AXIS":"6925.358","ELEMENT_SET_NO":"999","GP_ID":"185235944","ECCENTRICITY":"0.00009430"},{"DECAY_DATE":null,"MEAN_MOTION":"15.06403070","COUNTRY_CODE":"US","PERIAPSIS":"546.687","EPOCH":"2021-09-22T16:07:25.870944","CLASSIFICATION_TYPE":"U","BSTAR":"0.00003646800000","LAUNCH_DATE":"2020-03-18","RA_OF_ASC_NODE":"249.5721","FILE":"3123736","RCS_SIZE":"LARGE","APOAPSIS":"547.721","EPHEMERIS_TYPE":"0","MEAN_ANOMALY":"295.9920","PERIOD":"95.592","ECCENTRICITY":"0.00007470","GP_ID":"185266868","ELEMENT_SET_NO":"999","SEMIMAJOR_AXIS":"6925.339","MEAN_ELEMENT_THEORY":"SGP4","OBJECT_NAME":"STARLINK-1316","CENTER_NAME":"EARTH","REV_AT_EPOCH":"8435","MEAN_MOTION_DOT":"0.00000262","ARG_OF_PERICENTER":"64.1146","INCLINATION":"53.0524","TLE_LINE1":"1 45415U 20019BH  21265.67182721  .00000262  00000-0  36468-4 0  9992","REF_FRAME":"TEME","SITE":"AFETR","NORAD_CAT_ID":"45415","TLE_LINE2":"2 45415  53.0524 249.5721 0000747  64.1146 295.9920 15.06403070 84352","OBJECT_ID":"2020-019BH","OBJECT_TYPE":"PAYLOAD","MEAN_MOTION_DDOT":"0.0000000000000","TIME_SYSTEM":"UTC"},{"MEAN_MOTION":"15.06398027","DECAY_DATE":null,"COUNTRY_CODE":"US","EPOCH":"2021-09-22T08:57:30.180672","PERIAPSIS":"546.531","BSTAR":"0.00000216510000","CLASSIFICATION_TYPE":"U","LAUNCH_DATE":"2020-03-18","RA_OF_ASC_NODE":"250.9110","FILE":"3123417","APOAPSIS":"547.909","RCS_SIZE":"LARGE","MEAN_ANOMALY":"286.6587","EPHEMERIS_TYPE":"0","PERIOD":"95.592","GP_ID":"185237445","ECCENTRICITY":"0.00009950","ELEMENT_SET_NO":"999","SEMIMAJOR_AXIS":"6925.355","OBJECT_NAME":"STARLINK-1318","MEAN_ELEMENT_THEORY":"SGP4","MEAN_MOTION_DOT":"-0.00000249","REV_AT_EPOCH":"8429","CENTER_NAME":"EARTH","INCLINATION":"53.0544","ARG_OF_PERICENTER":"73.4512","REF_FRAME":"TEME","SITE":"AFETR","TLE_LINE1":"1 45416U 20019BJ  21265.37326598 -.00000249  00000-0  21651-5 0  9997","NORAD_CAT_ID":"45416","TLE_LINE2":"2 45416  53.0544 250.9110 0000995  73.4512 286.6587 15.06398027 84292","OBJECT_ID":"2020-019BJ","OBJECT_TYPE":"PAYLOAD","MEAN_MOTION_DDOT":"0.0000000000000","TIME_SYSTEM":"UTC"},{"RA_OF_ASC_NODE":"281.1911","FILE":"3123417","LAUNCH_DATE":"2020-03-18","BSTAR":"0.00005282300000","CLASSIFICATION_TYPE":"U","EPOCH":"2021-09-22T07:28:36.315552","PERIAPSIS":"546.567","DECAY_DATE":null,"MEAN_MOTION":"15.06396352","COUNTRY_CODE":"US","SEMIMAJOR_AXIS":"6925.360","ELEMENT_SET_NO":"999","ECCENTRICITY":"0.00009500","GP_ID":"185237696","PERIOD":"95.592","MEAN_ANOMALY":"297.0395","EPHEMERIS_TYPE":"0","RCS_SIZE":"LARGE","APOAPSIS":"547.883","REF_FRAME":"TEME","SITE":"AFETR","TLE_LINE1":"1 45417U 20019BK  21265.31153143  .00000506  00000-0  52823-4 0  9995","INCLINATION":"53.0549","ARG_OF_PERICENTER":"63.0691","MEAN_MOTION_DOT":"0.00000506","REV_AT_EPOCH":"8413","CENTER_NAME":"EARTH","OBJECT_NAME":"STARLINK-1286","MEAN_ELEMENT_THEORY":"SGP4","TIME_SYSTEM":"UTC","MEAN_MOTION_DDOT":"0.0000000000000","OBJECT_TYPE":"PAYLOAD","OBJECT_ID":"2020-019BK","NORAD_CAT_ID":"45417","TLE_LINE2":"2 45417  53.0549 281.1911 0000950  63.0691 297.0395 15.06396352 84132"},{"SEMIMAJOR_AXIS":"6942.104","GP_ID":"185236444","ECCENTRICITY":"0.00010400","ELEMENT_SET_NO":"999","EPHEMERIS_TYPE":"0","MEAN_ANOMALY":"274.2003","PERIOD":"95.939","APOAPSIS":"564.691","RCS_SIZE":"LARGE","FILE":"3123417","RA_OF_ASC_NODE":"296.7806","CLASSIFICATION_TYPE":"U","BSTAR":"0.00021815000000","LAUNCH_DATE":"2020-03-18","MEAN_MOTION":"15.00949630","DECAY_DATE":null,"COUNTRY_CODE":"US","PERIAPSIS":"563.247","EPOCH":"2021-09-22T11:35:33.615744","MEAN_MOTION_DDOT":"0.0000000000000","TIME_SYSTEM":"UTC","OBJECT_TYPE":"PAYLOAD","OBJECT_ID":"2020-019BL","TLE_LINE2":"2 45418  53.0009 296.7806 0001040  85.9101 274.2003 15.00949630 83655","NORAD_CAT_ID":"45418","TLE_LINE1":"1 45418U 20019BL  21265.48302796  .00002544  00000-0  21815-3 0  9994","SITE":"AFETR","REF_FRAME":"TEME","ARG_OF_PERICENTER":"85.9101","INCLINATION":"53.0009","CENTER_NAME":"EARTH","MEAN_MOTION_DOT":"0.00002544","REV_AT_EPOCH":"8365","MEAN_ELEMENT_THEORY":"SGP4","OBJECT_NAME":"STARLINK-1299"},{"OBJECT_TYPE":"PAYLOAD","TIME_SYSTEM":"UTC","MEAN_MOTION_DDOT":"0.0000000000000","NORAD_CAT_ID":"45419","TLE_LINE2":"2 45419  53.0526 280.6118 0000716  78.1897 281.9172 15.06410384 83908","OBJECT_ID":"2020-019BM","INCLINATION":"53.0526","ARG_OF_PERICENTER":"78.1897","SITE":"AFETR","REF_FRAME":"TEME","TLE_LINE1":"1 45419U 20019BM  21265.44054021  .00001593  00000-0  12573-3 0  9990","OBJECT_NAME":"STARLINK-1308","MEAN_ELEMENT_THEORY":"SGP4","REV_AT_EPOCH":"8390","MEAN_MOTION_DOT":"0.00001593","CENTER_NAME":"EARTH","ELEMENT_SET_NO":"999","ECCENTRICITY":"0.00007160","GP_ID":"185236694","SEMIMAJOR_AXIS":"6925.317","APOAPSIS":"547.678","RCS_SIZE":"LARGE","PERIOD":"95.591","MEAN_ANOMALY":"281.9172","EPHEMERIS_TYPE":"0","FILE":"3123417","RA_OF_ASC_NODE":"280.6118","EPOCH":"2021-09-22T10:34:22.674144","PERIAPSIS":"546.686","DECAY_DATE":null,"MEAN_MOTION":"15.06410384","COUNTRY_CODE":"US","LAUNCH_DATE":"2020-03-18","BSTAR":"0.00012573000000","CLASSIFICATION_TYPE":"U"},{"ARG_OF_PERICENTER":"70.0611","INCLINATION":"53.0534","TLE_LINE1":"1 45531U 20025A   21265.60825309  .00001318  00000-0  10742-3 0  9996","REF_FRAME":"TEME","SITE":"AFETR","MEAN_ELEMENT_THEORY":"SGP4","OBJECT_NAME":"STARLINK-1329","CENTER_NAME":"EARTH","MEAN_MOTION_DOT":"0.00001318","REV_AT_EPOCH":"7955","OBJECT_TYPE":"PAYLOAD","TIME_SYSTEM":"UTC","MEAN_MOTION_DDOT":"0.0000000000000","TLE_LINE2":"2 45531  53.0534 219.8451 0001645  70.0611 290.0555 15.06391668 79558","NORAD_CAT_ID":"45531","OBJECT_ID":"2020-025A","RA_OF_ASC_NODE":"219.8451","FILE":"3123736","PERIAPSIS":"546.100","EPOCH":"2021-09-22T14:35:53.066976","DECAY_DATE":null,"MEAN_MOTION":"15.06391668","COUNTRY_CODE":"US","LAUNCH_DATE":"2020-04-22","CLASSIFICATION_TYPE":"U","BSTAR":"0.00010742000000","ELEMENT_SET_NO":"999","GP_ID":"185265901","ECCENTRICITY":"0.00016450","SEMIMAJOR_AXIS":"6925.374","RCS_SIZE":"LARGE","APOAPSIS":"548.378","PERIOD":"95.593","EPHEMERIS_TYPE":"0","MEAN_ANOMALY":"290.0555"},{"DECAY_DATE":null,"COUNTRY_CODE":"US","MEAN_MOTION":"15.06404847","EPOCH":"2021-09-22T06:54:05.456160","PERIAPSIS":"546.112","BSTAR":"0.00010004000000","CLASSIFICATION_TYPE":"U","LAUNCH_DATE":"2020-04-22","RA_OF_ASC_NODE":"221.2930","FILE":"3123417","RCS_SIZE":"LARGE","APOAPSIS":"548.285","MEAN_ANOMALY":"297.0416","EPHEMERIS_TYPE":"0","PERIOD":"95.592","GP_ID":"185236456","ECCENTRICITY":"0.00015690","ELEMENT_SET_NO":"999","SEMIMAJOR_AXIS":"6925.334","OBJECT_NAME":"STARLINK-1338","MEAN_ELEMENT_THEORY":"SGP4","REV_AT_EPOCH":"7950","MEAN_MOTION_DOT":"0.00001209","CENTER_NAME":"EARTH","INCLINATION":"53.0540","ARG_OF_PERICENTER":"63.0733","REF_FRAME":"TEME","SITE":"AFETR","TLE_LINE1":"1 45532U 20025B   21265.28756315  .00001209  00000-0  10004-3 0  9991","TLE_LINE2":"2 45532  53.0540 221.2930 0001569  63.0733 297.0416 15.06404847 79509","NORAD_CAT_ID":"45532","OBJECT_ID":"2020-025B","OBJECT_TYPE":"PAYLOAD","MEAN_MOTION_DDOT":"0.0000000000000","TIME_SYSTEM":"UTC"}];
